OBJECT_NAME,OBJECT_ID,EPOCH,MEAN_MOTION,ECCENTRICITY,INCLINATION,RA_OF_ASC_NODE,ARG_OF_PERICENTER,MEAN_ANOMALY,EPHEMERIS_TYPE,CLASSIFICATION_TYPE,NORAD_CAT_ID,ELEMENT_SET_NO,REV_AT_EPOCH,BSTAR,MEAN_MOTION_DOT,MEAN_MOTION_DDOT
CUBEBUG-2 (LO-74),2013-066AA,2026-07-08T02:17:37.313664,14.93938171,.005621,97.8911,138.1650,319.5958,40.1092,0,U,39440,999,68011,.16315E-3,.1727E-4,0
FUNCUBE-1 (AO-73),2013-066AE,2026-07-07T20:52:25.032288,15.09754474,.0037639,97.8284,160.7511,131.6080,228.8384,0,U,39444,999,68278,.29326E-3,.4743E-4,0
UWE-3,2013-066AG,2026-07-07T20:50:20.258592,14.97169904,.0047521,97.8697,145.0849,250.1531,109.4565,0,U,39446,999,68067,.15023E-3,.1712E-4,0
UNISAT-6,2014-033C,2026-07-07T21:47:31.583616,14.88346798,.0044778,97.7902,341.2588,2.0155,358.1234,0,U,40012,999,64924,.18739E-3,.1709E-4,0
DUCHIFAT-1,2014-033M,2026-07-07T17:08:34.795104,15.69460048,.0001383,98.0443,250.8323,276.1488,83.9614,0,U,40021,999,65896,.89743E-3,.106366E-2,0
QB50P1,2014-033R,2026-07-07T23:23:00.559392,15.18590831,.0009877,98.0971,201.5818,146.1171,214.0694,0,U,40025,999,65618,.24981E-3,.5094E-4,0
LILACSAT-2,2015-049K,2026-07-08T03:57:41.420736,15.52174746,.0007828,97.4629,226.8104,162.6919,197.4601,0,U,40908,999,59900,.19301E-3,.11599E-3,0
FOX-1A (AO-85),2015-058D,2026-07-08T01:52:20.977248,14.91061024,.0131815,64.7733,214.0565,48.5092,312.7244,0,U,40967,999,11668,.14596E-3,.1529E-4,0
CAS-2T & KS-1Q,2016-066G,2026-07-08T03:45:22.383648,14.44759286,.0342581,98.3814,264.6528,66.0666,297.6008,0,U,41847,999,50782,.1479E-3,.1002E-4,0
RADFXSAT (FOX-1B),2017-073E,2026-07-08T02:36:35.854848,15.12999909,.0148125,97.4682,55.8968,256.2215,102.2493,0,U,43017,999,46855,.19086E-3,.4335E-4,0
DIWATA-2B,2018-084H,2026-07-08T04:13:16.901184,15.00545127,.0013054,98.1217,26.3015,105.5968,254.6696,0,U,43678,999,41936,.13562E-3,.1647E-4,0
ES'HAIL 2,2018-090A,2026-07-08T03:33:23.984064,1.00272740,.0002347,0.0127,310.3975,203.2868,211.5859,0,U,43700,999,2788,0,.159E-5,0
FOX-1CLIFF (AO-95),2018-099N,2026-07-08T02:43:50.553120,15.27170557,.000694,97.4374,249.2874,270.2614,89.7830,0,U,43770,999,41641,.25961E-3,.6845E-4,0
ITASAT,2018-099AE,2026-07-08T02:22:38.963712,15.19323461,.0010758,97.4017,240.1952,279.1684,80.8334,0,U,43786,999,41608,.18881E-3,.3925E-4,0
JY1SAT (JO-97),2018-099AX,2026-07-07T17:01:09.941376,15.34348143,.0006127,97.4118,251.6223,181.6726,178.4497,0,U,43803,999,41677,.35617E-3,.11777E-3,0
UWE-4,2018-111E,2026-07-07T18:54:07.121088,15.47469356,.0004963,97.5840,118.1465,225.8945,134.1896,0,U,43880,999,41396,.47256E-3,.24202E-3,0
TIANYAN 01,2019-093C,2026-07-08T04:20:09.168288,14.86555357,.0014204,97.7520,260.9006,24.0937,336.0940,0,U,44881,999,35453,.68594E-4,.555E-5,0
RS-44 & BREEZE-KM R/B,2019-096E,2026-07-07T21:06:26.952768,12.79748976,.021859,82.5237,325.9546,96.0132,266.5924,0,U,44909,999,30499,.15148E-4,.17E-6,0
SALSAT,2020-068K,2026-07-07T22:39:07.910784,15.30102262,.000847,97.8859,193.2762,220.3352,139.7260,0,U,46495,999,31853,.15694E-3,.449E-4,0
XW-3 (CAS-9),2021-131B,2026-07-08T05:27:20.435040,14.41377830,.0004957,98.4981,281.5039,48.1809,311.9803,0,U,50466,999,23814,.10082E-3,.282E-5,0
GREENCUBE (IO-117),2022-080E,2026-07-08T04:41:06.595008,6.42583247,.0009007,70.1427,290.9400,285.1341,74.8322,0,U,53109,999,9341,0,-.3E-7,0
UMKA 1 (RS40S),2023-091G,2026-07-08T03:31:41.124864,15.21068155,.0013665,97.5038,247.7653,52.3866,307.8607,0,U,57172,999,16719,.16283E-3,.3555E-4,0
CUBESX-HSE 3 (RS42S),2023-091N,2026-07-08T03:32:23.440128,15.31763025,.0010437,97.5080,255.0057,26.9030,333.2751,0,U,57178,999,16763,.26597E-3,.809E-4,0
MONITOR-3 (RS58S),2023-091Q,2026-07-08T03:40:57.997920,15.28278138,.0011764,97.5072,252.7577,33.8688,326.3301,0,U,57180,999,16749,.22131E-3,.6031E-4,0
MONITOR-4 (RS57S),2023-091S,2026-07-08T03:09:07.928928,15.28363895,.0011743,97.5065,252.7078,34.4015,325.7983,0,U,57182,999,16749,.23463E-3,.6416E-4,0
MONITOR-2 (RS39S),2023-091U,2026-07-08T04:40:37.175808,15.19111911,.0012061,97.5062,247.3430,46.6270,313.5967,0,U,57184,999,16714,.15953E-3,.3285E-4,0
SVYATOBOR 1 (RS60S),2023-091X,2026-07-08T03:54:31.434048,15.26983354,.0009479,97.5078,253.0993,28.7667,331.4093,0,U,57187,999,16751,.20137E-3,.5264E-4,0
VIZARD-METEO (RS38S),2023-091Z,2026-07-08T04:26:21.554016,15.36720161,.0006346,97.5079,259.0994,7.6476,352.4863,0,U,57189,999,16791,.30796E-3,.10973E-3,0
POLYTECH-UNIVERSE 3 (RS46S),2023-091AB,2026-07-08T03:40:51.369312,15.19321678,.0016619,97.5036,246.8059,60.4652,299.8237,0,U,57191,999,16713,.15939E-3,.3308E-4,0
UTMN 2 (RS27S),2023-091AP,2026-07-08T03:41:23.955936,15.32583800,.00075,97.5075,256.6714,16.0490,344.0988,0,U,57203,999,16775,.25309E-3,.7889E-4,0
