CUBEBUG-2 (LO-74)
1 39440U 13066AA  26189.09557076  .00001727  00000-0  16315-3 0  9997
2 39440  97.8911 138.1650 0056210 319.5958  40.1092 14.93938171680113
FUNCUBE-1 (AO-73)
1 39444U 13066AE  26188.86973417  .00004743  00000-0  29326-3 0  9993
2 39444  97.8284 160.7511 0037639 131.6080 228.8384 15.09754474682784
UWE-3
1 39446U 13066AG  26188.86829003  .00001712  00000-0  15023-3 0  9998
2 39446  97.8697 145.0849 0047521 250.1531 109.4565 14.97169904680678
UNISAT-6
1 40012U 14033C   26188.90800444  .00001709  00000-0  18739-3 0  9990
2 40012  97.7902 341.2588 0044778   2.0155 358.1234 14.88346798649246
DUCHIFAT-1
1 40021U 14033M   26188.71429161  .00106366  00000-0  89743-3 0  9990
2 40021  98.0443 250.8323 0001383 276.1488  83.9614 15.69460048658969
LILACSAT-2
1 40908U 15049K   26189.16506274  .00011599  00000-0  19301-3 0  9999
2 40908  97.4629 226.8104 0007828 162.6919 197.4601 15.52174746599005
CAS-2T & KS-1Q
1 41847U 16066G   26189.15650907  .00001002  00000-0  14790-3 0  9999
2 41847  98.3814 264.6528 0342581  66.0666 297.6008 14.44759286507829
FOX-1B (AO-91)
1 43017U 17073E   26189.10874832  .00004335  00000-0  19086-3 0  9994
2 43017  97.4682  55.8968 0148125 256.2215 102.2493 15.12999909468551
FUNCUBE-3 (EO-79)/QB50P1
1 40025U 14033R   26188.97431203  .00005094  00000-0  24981-3 0  9991
2 40025  98.0971 201.5818 0009877 146.1171 214.0694 15.18590831656187
FOX-1A (AO-85)
1 40967U 15058D   26189.07802057  .00001529  00000-0  14596-3 0  9995
2 40967  64.7733 214.0565 0131815  48.5092 312.7244 14.91061024116681
DIWATA-2B (PO-101)
1 43678U 18084H   26189.17589006  .00001647  00000-0  13562-3 0  9999
2 43678  98.1217  26.3015 0013054 105.5968 254.6696 15.00545127419363
ESHAIL-2
1 43700U 18090A   26189.14819426  .00000159  00000-0  00000+0 0  9997
2 43700   0.0127 310.3975 0002347 203.2868 211.5859  1.00272740 27888
ITASAT-1
1 43786U 18099AE  26189.09906208  .00003925  00000-0  18881-3 0  9993
2 43786  97.4017 240.1952 0010758 279.1684  80.8334 15.19323461416089
FOX-1CLIFF (AO-95)
1 43770U 18099N   26189.11377955  .00006845  00000-0  25961-3 0  9991
2 43770  97.4374 249.2874 0006940 270.2614  89.7830 15.27170557416415
JY1SAT (JO-97)
1 43803U 18099AX  26188.70914284  .00011777  00000-0  35617-3 0  9993
2 43803  97.4118 251.6223 0006127 181.6726 178.4497 15.34348143416779
UWE-4
1 43880U 18111E   26188.78758242  .00024202  00000-0  47256-3 0  9990
2 43880  97.5840 118.1465 0004963 225.8945 134.1896 15.47469356413966
CAS-6 (TO-108)
1 44881U 19093C   26189.18066167  .00000555  00000-0  68594-4 0  9999
2 44881  97.7520 260.9006 0014204  24.0937 336.0940 14.86555357354530
DOSAAF-85 (RS-44)
1 44909U 19096E   26188.87947862  .00000017  00000-0  15148-4 0  9998
2 44909  82.5237 325.9546 0218590  96.0132 266.5924 12.79748976304994
SALSAT (TUBSAT 22)
1 46495U 20068K   26188.94384156  .00004490  00000-0  15694-3 0  9994
2 46495  97.8859 193.2762 0008470 220.3352 139.7260 15.30102262318532
CAMSAT XW-3 (CAS-9)
1 50466U 21131B   26189.22731985  .00000282  00000-0  10082-3 0  9998
2 50466  98.4981 281.5039 0004957  48.1809 311.9803 14.41377830238146
ROBUSTA 1F (MTCUBE-2)
1 53109U 22080E   26189.19521522 -.00000003  00000-0  00000+0 0  9996
2 53109  70.1427 290.9400 0009007 285.1341  74.8322  6.42583247 93419
UMKA-1 (RS40S)
1 57172U 23091G   26189.14700376  .00003555  00000-0  16283-3 0  9992
2 57172  97.5038 247.7653 0013665  52.3866 307.8607 15.21068155167190
CUBESX-HSE-3 (RS42S)
1 57178U 23091N   26189.14749352  .00008090  00000-0  26597-3 0  9993
2 57178  97.5080 255.0057 0010437  26.9030 333.2751 15.31763025167638
MONITOR-3 (RS58S)
1 57180U 23091Q   26189.15344905  .00006031  00000-0  22131-3 0  9995
2 57180  97.5072 252.7577 0011764  33.8688 326.3301 15.28278138167493
MONITOR-4 (RS57S)
1 57182U 23091S   26189.13134177  .00006416  00000-0  23463-3 0  9999
2 57182  97.5065 252.7078 0011743  34.4015 325.7983 15.28363895167495
MONITOR-2 (RS39S)
1 57184U 23091U   26189.19487472  .00003285  00000-0  15953-3 0  9992
2 57184  97.5062 247.3430 0012061  46.6270 313.5967 15.19111911167147
SVYATOBOR-1 (RS60S)
1 57187U 23091X   26189.16286382  .00005264  00000-0  20137-3 0  9998
2 57187  97.5078 253.0993 0009479  28.7667 331.4093 15.26983354167511
VIZARD-METEO (RS38S)
1 57189U 23091Z   26189.18497169  .00010973  00000-0  30796-3 0  9994
2 57189  97.5079 259.0994 0006346   7.6476 352.4863 15.36720161167913
UTMN-2 (RS27S)
1 57203U 23091AP  26189.15374949  .00007889  00000-0  25309-3 0  9994
2 57203  97.5075 256.6714 0007500  16.0490 344.0988 15.32583800167752
POLYTECH UNIVERSE-3 (RS46S)
1 57191U 23091AB  26189.15337233  .00003308  00000-0  15939-3 0  9995
2 57191  97.5036 246.8059 0016619  60.4652 299.8237 15.19321678167136
